{
  "norad_id": 66860,
  "name": "STARLINK-35987",
  "history": [
    {
      "epoch": "2026-03-28T16:35:57.993216Z",
      "apogee_km": 483.51816951882756,
      "perigee_km": 482.4149040701104,
      "latitude_deg": 2.707504411901343e-05,
      "longitude_deg": 160.88333975006645,
      "height_km": 482.77653816057006,
      "semi_major_axis_km": 6861.103536794469,
      "eccentricity": 8.04e-05,
      "inclination_deg": 42.9967,
      "raan_deg": 235.9834,
      "arg_perigee_deg": 266.4458,
      "mean_anomaly_deg": 93.6302,
      "mean_motion_rev_day": 15.27607572
    },
    {
      "epoch": "2026-03-30T09:24:02.723616Z",
      "apogee_km": 485.7034366304815,
      "perigee_km": 480.27998882821703,
      "latitude_deg": 2.5418662189197357e-06,
      "longitude_deg": -102.41334600022772,
      "height_km": 481.8746162930661,
      "semi_major_axis_km": 6861.128712729349,
      "eccentricity": 0.00039523,
      "inclination_deg": 43.0001,
      "raan_deg": 226.3821,
      "arg_perigee_deg": 289.2827,
      "mean_anomaly_deg": 70.7597,
      "mean_motion_rev_day": 15.27599164
    },
    {
      "epoch": "2026-03-30T18:48:58.660128Z",
      "apogee_km": 483.9957218012796,
      "perigee_km": 481.9489156693144,
      "latitude_deg": -4.381071071004698e-05,
      "longitude_deg": 113.7504538158173,
      "height_km": 482.59219649651527,
      "semi_major_axis_km": 6861.109318735296,
      "eccentricity": 0.00014916,
      "inclination_deg": 42.9983,
      "raan_deg": 224.1657,
      "arg_perigee_deg": 278.8087,
      "mean_anomaly_deg": 81.2595,
      "mean_motion_rev_day": 15.27605641
    },
    {
      "epoch": "2026-03-31T08:56:23.167104Z",
      "apogee_km": 483.90156540760745,
      "perigee_km": 482.0610018168454,
      "latitude_deg": 1.31504887169877e-06,
      "longitude_deg": -102.00584015797175,
      "height_km": 482.9679868870815,
      "semi_major_axis_km": 6861.118283612226,
      "eccentricity": 0.00013413,
      "inclination_deg": 42.9981,
      "raan_deg": 220.8415,
      "arg_perigee_deg": 256.7887,
      "mean_anomaly_deg": 103.2815,
      "mean_motion_rev_day": 15.27602647
    },
    {
      "epoch": "2026-04-01T14:45:22.156128Z",
      "apogee_km": 483.73198444047557,
      "perigee_km": 482.35563157038905,
      "latitude_deg": 1.8301988449291214e-05,
      "longitude_deg": 162.50857654229642,
      "height_km": 482.59812572078295,
      "semi_major_axis_km": 6861.1808080054325,
      "eccentricity": 0.0001003,
      "inclination_deg": 42.9987,
      "raan_deg": 213.8262,
      "arg_perigee_deg": 288.8093,
      "mean_anomaly_deg": 71.265,
      "mean_motion_rev_day": 15.27581766
    },
    {
      "epoch": "2026-04-02T15:51:51.621696Z",
      "apogee_km": 484.0168585481806,
      "perigee_km": 481.8103446747027,
      "latitude_deg": -3.8320250341930726e-06,
      "longitude_deg": 138.94782416062773,
      "height_km": 482.3356416240381,
      "semi_major_axis_km": 6861.050601611441,
      "eccentricity": 0.0001608,
      "inclination_deg": 42.9994,
      "raan_deg": 207.9194,
      "arg_perigee_deg": 288.7561,
      "mean_anomaly_deg": 71.3116,
      "mean_motion_rev_day": 15.27625251
    },
    {
      "epoch": "2026-04-02T15:51:51.622560Z",
      "apogee_km": 484.0169957691933,
      "perigee_km": 481.81020745369096,
      "latitude_deg": -2.34246603982157e-06,
      "longitude_deg": 138.947822139332,
      "height_km": 482.3355975082146,
      "semi_major_axis_km": 6861.050601611441,
      "eccentricity": 0.00016082,
      "inclination_deg": 42.9994,
      "raan_deg": 207.9194,
      "arg_perigee_deg": 288.7561,
      "mean_anomaly_deg": 71.3116,
      "mean_motion_rev_day": 15.27625251
    }
  ]
}